{"type": "FeatureCollection", "features": [ {"type": "Feature", "properties": {"norad_id": 66677, "name": "TRANSPORTER-15M", "group": "last-30-days", "lat": 79.496454628157, "lon": 25.706199700632006, "alt_km": 496.8461581596084, "timestamp": "2025-12-24T22:42:20.744729+00:00", "meta": {"OBJECT_NAME": "TRANSPORTER-15M", "OBJECT_ID": "2025-276M", "EPOCH": "2025-12-23T22:42:45.903168", "MEAN_MOTION": 15.22843354, "ECCENTRICITY": 0.0025304, "INCLINATION": 97.4375, "RA_OF_ASC_NODE": 69.5111, "ARG_OF_PERICENTER": 251.3667, "MEAN_ANOMALY": 108.4821, "EPHEMERIS_TYPE": 0, "CLASSIFICATION_TYPE": "U", "NORAD_CAT_ID": 66677, "ELEMENT_SET_NO": 999, "REV_AT_EPOCH": 382, "BSTAR": 0.064784, "MEAN_MOTION_DOT": 0.01686367, "MEAN_MOTION_DDOT": 0}, "tle": {"line1": "1 66677U 25276M   25357.94636462  .01686367  00000+0  64784-1 0  9992", "line2": "2 66677  97.4375  69.5111 0025304 251.3667 108.4821 15.22843354  3820"}}, "geometry": {"type": "Point", "coordinates": [25.706199700632006, 79.496454628157]}}, {"type": "Feature", "properties": {"norad_id": 66678, "name": "TRANSPORTER-15N", "group": "last-30-days", "lat": -8.600832610647554, "lon": 71.61180707637793, "alt_km": 509.8720687522391, "timestamp": "2025-12-24T22:42:20.744742+00:00", "meta": {"OBJECT_NAME": "TRANSPORTER-15N", "OBJECT_ID": "2025-276N", "EPOCH": "2025-12-23T13:30:59.821632", "MEAN_MOTION": 15.1725627, "ECCENTRICITY": 0.00085587, "INCLINATION": 97.4431, "RA_OF_ASC_NODE": 69.1192, "ARG_OF_PERICENTER": 326.8045, "MEAN_ANOMALY": 33.265, "EPHEMERIS_TYPE": 0, "CLASSIFICATION_TYPE": "U", "NORAD_CAT_ID": 66678, "ELEMENT_SET_NO": 999, "REV_AT_EPOCH": 376, "BSTAR": 0.019320773, "MEAN_MOTION_DOT": 0.00406502, "MEAN_MOTION_DDOT": 0}, "tle": {"line1": "1 66678U 25276N   25357.56319238  .00406502  00000+0  19321-1 0  9997", "line2": "2 66678  97.4431  69.1192 0008558 326.8045  33.2650 15.17256270  3766"}}, "geometry": {"type": "Point", "coordinates": [71.61180707637793, -8.600832610647554]}}, {"type": "Feature", "properties": {"norad_id": 66679, "name": "TRANSPORTER-15P", "group": "last-30-days", "lat": -21.42097019825223, "lon": 73.3928082528286, "alt_km": 521.10527252271, "timestamp": "2025-12-24T22:42:20.744752+00:00", "meta": {"OBJECT_NAME": "TRANSPORTER-15P", "OBJECT_ID": "2025-276P", "EPOCH": "2025-12-23T11:57:58.682304", "MEAN_MOTION": 15.16695549, "ECCENTRICITY": 0.00046551, "INCLINATION": 97.4364, "RA_OF_ASC_NODE": 69.0361, "ARG_OF_PERICENTER": 254.9707, "MEAN_ANOMALY": 105.1011, "EPHEMERIS_TYPE": 0, "CLASSIFICATION_TYPE": "U", "NORAD_CAT_ID": 66679, "ELEMENT_SET_NO": 999, "REV_AT_EPOCH": 375, "BSTAR": 0.00023774263, "MEAN_MOTION_DOT": 4.592e-05, "MEAN_MOTION_DDOT": 0}, "tle": {"line1": "1 66679U 25276P   25357.49859586  .00004592  00000+0  23774-3 0  9997", "line2": "2 66679  97.4364  69.0361 0004655 254.9707 105.1011 15.16695549  3753"}}, "geometry": {"type": "Point", "coordinates": [73.3928082528286, -21.42097019825223]}}, {"type": "Feature", "properties": {"norad_id": 66680, "name": "TRANSPORTER-15Q", "group": "last-30-days", "lat": -12.559706417972606, "lon": 72.14133404839856, "alt_km": 521.2062239985416, "timestamp": "2025-12-24T22:42:20.744762+00:00", "meta": {"OBJECT_NAME": "TRANSPORTER-15Q", "OBJECT_ID": "2025-276Q", "EPOCH": "2025-12-24T05:20:44.815488", "MEAN_MOTION": 15.16837023, "ECCENTRICITY": 0.00043803, "INCLINATION": 97.4403, "RA_OF_ASC_NODE": 69.7631, "ARG_OF_PERICENTER": 235.631, "MEAN_ANOMALY": 124.451, "EPHEMERIS_TYPE": 0, "CLASSIFICATION_TYPE": "U", "NORAD_CAT_ID": 66680, "ELEMENT_SET_NO": 999, "REV_AT_EPOCH": 386, "BSTAR": 6.6454606e-05, "MEAN_MOTION_DOT": 1.241e-05, "MEAN_MOTION_DDOT": 0}, "tle": {"line1": "1 66680U 25276Q   25358.22274092  .00001241  00000+0  66455-4 0  9996", "line2": "2 66680  97.4403  69.7631 0004380 235.6310 124.4510 15.16837023  3862"}}, "geometry": {"type": "Point", "coordinates": [72.14133404839856, -12.559706417972606]}}, {"type": "Feature", "properties": {"norad_id": 66681, "name": "TRANSPORTER-15R", "group": "last-30-days", "lat": 19.587311507615574, "lon": 67.80007986987899, "alt_km": 514.900356734036, "timestamp": "2025-12-24T22:42:20.744772+00:00", "meta": {"OBJECT_NAME": "TRANSPORTER-15R", "OBJECT_ID": "2025-276R", "EPOCH": "2025-12-24T05:12:39.057408", "MEAN_MOTION": 15.17489957, "ECCENTRICITY": 0.00049798, "INCLINATION": 97.4332, "RA_OF_ASC_NODE": 69.7474, "ARG_OF_PERICENTER": 269.4812, "MEAN_ANOMALY": 90.5851, "EPHEMERIS_TYPE": 0, "CLASSIFICATION_TYPE": "U", "NORAD_CAT_ID": 66681, "ELEMENT_SET_NO": 999, "REV_AT_EPOCH": 386, "BSTAR": 0.00097099796, "MEAN_MOTION_DOT": 0.00019432, "MEAN_MOTION_DDOT": 0}, "tle": {"line1": "1 66681U 25276R   25358.21711872  .00019432  00000+0  97100-3 0  9999", "line2": "2 66681  97.4332  69.7474 0004979 269.4812  90.5851 15.17489957  3866"}}, "geometry": {"type": "Point", "coordinates": [67.80007986987899, 19.587311507615574]}}, {"type": "Feature", "properties": {"norad_id": 66682, "name": "TRANSPORTER-15S", "group": "last-30-days", "lat": 5.906197015286019, "lon": 69.71932289612887, "alt_km": 517.2709859436609, "timestamp": "2025-12-24T22:42:20.744782+00:00", "meta": {"OBJECT_NAME": "TRANSPORTER-15S", "OBJECT_ID": "2025-276S", "EPOCH": "2025-12-23T16:36:30.446784", "MEAN_MOTION": 15.17268093, "ECCENTRICITY": 0.00070245, "INCLINATION": 97.4445, "RA_OF_ASC_NODE": 69.262, "ARG_OF_PERICENTER": 262.2032, "MEAN_ANOMALY": 97.8405, "EPHEMERIS_TYPE": 0, "CLASSIFICATION_TYPE": "U", "NORAD_CAT_ID": 66682, "ELEMENT_SET_NO": 999, "REV_AT_EPOCH": 378, "BSTAR": 0.0041402612, "MEAN_MOTION_DOT": 0.00083292, "MEAN_MOTION_DDOT": 0}, "tle": {"line1": "1 66682U 25276S   25357.69201906  .00083292  00000+0  41403-2 0  9992", "line2": "2 66682  97.4445  69.2620 0007024 262.2032  97.8405 15.17268093  3781"}}, "geometry": {"type": "Point", "coordinates": [69.71932289612887, 5.906197015286019]}}, {"type": "Feature", "properties": {"norad_id": 66683, "name": "TRANSPORTER-15T", "group": "last-30-days", "lat": -0.47458134370791566, "lon": 70.55377338933368, "alt_km": 519.1327442346201, "timestamp": "2025-12-24T22:42:20.744792+00:00", "meta": {"OBJECT_NAME": "TRANSPORTER-15T", "OBJECT_ID": "2025-276T", "EPOCH": "2025-12-24T03:42:41.713344", "MEAN_MOTION": 15.17040551, "ECCENTRICITY": 0.00051256, "INCLINATION": 97.4441, "RA_OF_ASC_NODE": 69.7144, "ARG_OF_PERICENTER": 251.3557, "MEAN_ANOMALY": 108.7121, "EPHEMERIS_TYPE": 0, "CLASSIFICATION_TYPE": "U", "NORAD_CAT_ID": 66683, "ELEMENT_SET_NO": 999, "REV_AT_EPOCH": 385, "BSTAR": 0.00075811585, "MEAN_MOTION_DOT": 0.00014954, "MEAN_MOTION_DDOT": 0}, "tle": {"line1": "1 66683U 25276T   25358.15464946  .00014954  00000+0  75812-3 0  9991", "line2": "2 66683  97.4441  69.7144 0005125 251.3557 108.7121 15.17040551  3857"}}, "geometry": {"type": "Point", "coordinates": [70.55377338933368, -0.47458134370791566]}}, {"type": "Feature", "properties": {"norad_id": 66684, "name": "TRANSPORTER-15U", "group": "last-30-days", "lat": 18.811545558320113, "lon": 67.95384164605193, "alt_km": 516.7987189799533, "timestamp": "2025-12-24T22:42:20.744802+00:00", "meta": {"OBJECT_NAME": "TRANSPORTER-15U", "OBJECT_ID": "2025-276U", "EPOCH": "2025-12-24T05:12:45.406944", "MEAN_MOTION": 15.17351913, "ECCENTRICITY": 0.00046042, "INCLINATION": 97.4471, "RA_OF_ASC_NODE": 69.7912, "ARG_OF_PERICENTER": 234.3017, "MEAN_ANOMALY": 125.7789, "EPHEMERIS_TYPE": 0, "CLASSIFICATION_TYPE": "U", "NORAD_CAT_ID": 66684, "ELEMENT_SET_NO": 999, "REV_AT_EPOCH": 386, "BSTAR": 0.00071158128, "MEAN_MOTION_DOT": 0.00014155, "MEAN_MOTION_DDOT": 0}, "tle": {"line1": "1 66684U 25276U   25358.21719221  .00014155  00000+0  71158-3 0  9990", "line2": "2 66684  97.4471  69.7912 0004604 234.3017 125.7789 15.17351913  3864"}}, "geometry": {"type": "Point", "coordinates": [67.95384164605193, 18.811545558320113]}}, {"type": "Feature", "properties": {"norad_id": 66685, "name": "TRANSPORTER-15V", "group": "last-30-days", "lat": 26.992346319200813, "lon": 66.67560987474563, "alt_km": 514.2347826310097, "timestamp": "2025-12-24T22:42:20.744812+00:00", "meta": {"OBJECT_NAME": "TRANSPORTER-15V", "OBJECT_ID": "2025-276V", "EPOCH": "2025-12-24T05:10:41.316672", "MEAN_MOTION": 15.17506499, "ECCENTRICITY": 0.00040791, "INCLINATION": 97.4416, "RA_OF_ASC_NODE": 69.7754, "ARG_OF_PERICENTER": 257.4685, "MEAN_ANOMALY": 102.6092, "EPHEMERIS_TYPE": 0, "CLASSIFICATION_TYPE": "U", "NORAD_CAT_ID": 66685, "ELEMENT_SET_NO": 999, "REV_AT_EPOCH": 386, "BSTAR": 0.00085463641, "MEAN_MOTION_DOT": 0.00017096, "MEAN_MOTION_DDOT": 0}, "tle": {"line1": "1 66685U 25276V   25358.21575598  .00017096  00000+0  85464-3 0  9990", "line2": "2 66685  97.4416  69.7754 0004079 257.4685 102.6092 15.17506499  3863"}}, "geometry": {"type": "Point", "coordinates": [66.67560987474563, 26.992346319200813]}}, {"type": "Feature", "properties": {"norad_id": 66686, "name": "TRANSPORTER-15W", "group": "last-30-days", "lat": 25.428595053880958, "lon": 66.93337384344723, "alt_km": 497.5058280836047, "timestamp": "2025-12-24T22:42:20.744827+00:00", "meta": {"OBJECT_NAME": "TRANSPORTER-15W", "OBJECT_ID": "2025-276W", "EPOCH": "2025-12-23T03:56:36.504096", "MEAN_MOTION": 15.1831658, "ECCENTRICITY": 0.00058538, "INCLINATION": 97.445, "RA_OF_ASC_NODE": 68.7391, "ARG_OF_PERICENTER": 311.4119, "MEAN_ANOMALY": 48.6611, "EPHEMERIS_TYPE": 0, "CLASSIFICATION_TYPE": "U", "NORAD_CAT_ID": 66686, "ELEMENT_SET_NO": 999, "REV_AT_EPOCH": 370, "BSTAR": 0.05265621, "MEAN_MOTION_DOT": 0.01174743, "MEAN_MOTION_DDOT": 0}, "tle": {"line1": "1 66686U 25276W   25357.16431139  .01174743  00000+0  52656-1 0  9995", "line2": "2 66686  97.4450  68.7391 0005853 311.4119  48.6611 15.18316580  3702"}}, "geometry": {"type": "Point", "coordinates": [66.93337384344723, 25.428595053880958]}}]}